OBJECT_NAME,OBJECT_ID,EPOCH,MEAN_MOTION,ECCENTRICITY,INCLINATION,RA_OF_ASC_NODE,ARG_OF_PERICENTER,MEAN_ANOMALY,EPHEMERIS_TYPE,CLASSIFICATION_TYPE,NORAD_CAT_ID,ELEMENT_SET_NO,REV_AT_EPOCH,BSTAR,MEAN_MOTION_DOT,MEAN_MOTION_DDOT
ALOS-2,2014-029A,2026-06-26T21:04:45.192576,14.79471532,.00015771,97.9221,274.9032,89.2522,270.8870,0,U,39766,999,65301,.16185833E-3,.1158E-4,0
KAZEOSAT 2,2014-033A,2026-06-26T22:19:02.464896,14.85482925,.00071011,97.5409,17.0273,293.1065,66.9402,0,U,40010,999,65040,.12554815E-3,.1033E-4,0
HODOYOSHI-4,2014-033B,2026-06-26T23:39:10.832256,14.88148221,.00220986,97.5452,2.3352,273.8413,86.0278,0,U,40011,999,65026,.16931181E-3,.1513E-4,0
DEIMOS-2,2014-033D,2026-06-26T21:30:47.160288,14.93751423,.00012247,97.5829,52.0444,54.1298,306.0036,0,U,40013,999,63917,.12393615E-3,.1258E-4,0
HODOYOSHI-3,2014-033F,2026-06-26T22:51:52.922304,14.85407102,.00318818,97.6425,340.6005,324.5664,35.3433,0,U,40015,999,64907,.12660984E-3,.1047E-4,0
SPOT 7,2014-034A,2026-06-26T23:24:41.871168,14.60966540,.00013547,98.0631,240.2149,94.7242,265.4114,0,U,40053,999,63856,.11926454E-3,.539E-5,0
SKYSAT-B,2014-037D,2026-06-26T21:00:35.498304,14.88050737,.00042682,98.3842,137.3928,239.8141,120.2651,0,U,40072,999,64740,.1445754E-3,.1267E-4,0
WORLDVIEW-3 (WV-3),2014-048A,2026-06-26T22:29:57.153120,14.85036836,.00001989,97.8564,252.6357,21.3498,338.7726,0,U,40115,999,64335,.10206238E-3,.818E-5,0
GAOFEN-2,2014-049A,2026-06-26T23:22:01.950816,14.80907115,.00067584,98.0111,242.1714,190.9112,169.1955,0,U,40118,999,64068,.31808785E-4,.192E-5,0
YAOGAN-21,2014-053A,2026-06-26T23:53:54.252384,15.26511957,.00095728,97.1473,217.8103,65.8167,294.4073,0,U,40143,999,65645,.27049097E-3,.7003E-4,0
YAOGAN-22,2014-063A,2026-06-26T22:05:07.311264,13.15531216,.00065614,100.7735,329.3555,163.8699,196.2622,0,U,40275,999,56109,.65942437E-4,-.22E-6,0
ASNARO,2014-070A,2026-06-26T21:44:03.702624,15.19568499,.00063327,97.3452,253.7571,136.4321,223.7416,0,U,40298,999,64548,.32503227E-3,.6852E-4,0
YAOGAN-24,2014-072A,2026-06-26T23:28:45.471648,14.76096574,.00132894,98.1494,315.3994,230.4509,129.5526,0,U,40310,999,62516,.78885113E-4,.492E-5,0
CBERS 4,2014-079A,2026-06-27T00:06:35.916768,14.35511063,.00015375,98.3534,234.5281,54.9551,305.1779,0,U,40336,999,60536,.15603824E-4,.3E-7,0
YAOGAN-26,2014-088A,2026-06-26T23:05:31.727328,15.47741841,.00048842,97.0639,177.9440,44.0123,316.1517,0,U,40362,999,63921,.57759696E-3,.29911E-3,0
SMAP,2015-003A,2026-06-26T22:13:31.754208,14.63374525,.00014312,98.1276,184.8826,98.3586,261.7778,0,U,40376,999,60904,.89652658E-4,.416E-5,0
KOMPSAT-3A,2015-014A,2026-06-26T23:07:56.690112,15.54461116,.00571006,97.6882,170.0435,139.6023,220.9492,0,U,40536,999,62333,.41768585E-3,.2946E-3,0
SENTINEL-2A,2015-028A,2026-06-26T22:26:22.075872,14.30817385,.0001166,98.5686,252.6483,93.1540,266.9776,0,U,40697,999,57512,.5010522E-5,-.3E-6,0
GAOFEN-8,2015-030A,2026-06-26T23:45:36.222912,15.46295003,.00094464,97.6907,11.9502,152.5676,207.6074,0,U,40701,999,61296,.19230064E-3,.9393E-4,0
CARBONITE 1 (CBNT-1),2015-032D,2026-06-26T23:05:20.969664,14.83614403,.00129378,97.6510,355.6195,262.6611,97.3134,0,U,40718,999,59079,.20947555E-3,.1679E-4,0
YAOGAN-27,2015-040A,2026-06-26T23:41:41.610624,13.16070828,.00079868,100.1153,163.9445,186.7588,173.3419,0,U,40878,999,51895,-.38859234E-3,-.19E-5,0
GAOFEN-9 01,2015-047A,2026-06-26T23:33:44.000064,14.82901687,.00288513,97.6271,213.2313,107.1616,253.2761,0,U,40894,999,58164,.12652184E-3,.982E-5,0
YAOGAN-28,2015-064A,2026-06-26T22:51:53.070912,15.27538995,.00114583,97.3081,316.0161,150.2613,209.9280,0,U,41026,999,59217,.25875165E-3,.691E-4,0
YAOGAN-29,2015-069A,2026-06-26T23:03:21.156192,14.83091759,.00020552,98.0029,206.6085,39.2188,320.9174,0,U,41038,999,57207,.56357203E-4,.405E-5,0
KENT RIDGE 1,2015-077B,2026-06-26T09:31:22.248192,15.23182390,.0008186,14.9781,197.4940,8.5301,351.5159,0,U,41167,999,58250,.13611E-3,.4082E-4,0
GAOFEN-4,2015-083A,2026-06-25T21:39:16.789824,1.00271078,.00040511,0.3805,83.9226,113.8387,146.7998,0,U,41194,999,3861,0,-.324E-5,0
JASON-3,2016-002A,2026-06-26T22:40:03.873792,12.87623031,.00084011,66.0415,105.3225,272.3362,87.6695,0,U,41240,999,48850,-.51368399E-4,-.75E-6,0
SENTINEL-3A,2016-011A,2026-06-26T23:09:03.250944,14.26735132,.00014379,98.6246,245.2077,96.8765,263.2579,0,U,41335,999,53945,.5621261E-4,.92E-6,0
ZIYUAN 3-02 (ZY 3-02),2016-033A,2026-06-26T23:46:23.888928,15.21268573,.00124936,97.3839,253.5762,252.7540,107.2329,0,U,41556,999,55947,.23933323E-3,.529E-4,0
CARTOSAT-2C,2016-040A,2026-06-26T22:34:00.787296,15.19264103,.00105314,97.4486,237.7840,101.4507,258.7911,0,U,41599,999,55519,.20275876E-3,.4212E-4,0
